1 45590U 20025BM  23027.58533532  .00000021  00000-0  20315-4 0  9998
2 45590  53.0555 171.2776 0001329  78.8682 281.2456 15.06379918153717
1 45590U 20025BM  23027.71802714  .00000018  00000-0  20084-4 0  9993
2 45590  53.0551 170.6811 0001301  78.9749 281.1386 15.06384922153735
1 45590U 20025BM  23027.71802714  .00000018  00000-0  20084-4 0  9993
2 45590  53.0551 170.6811 0001301  78.9749 281.1386 15.06384922153128
1 45590U 20025BM  23028.11610399  .00000639  00000-0  61814-4 0  9999
2 45590  53.0549 168.8933 0001186  83.7641 276.3483 15.06392423153180
1 45590U 20025BM  23028.38148453 -.00003163  00000-0 -19343-3 0  9991
2 45590  53.0550 167.7032 0001804  73.2645 286.8542 15.06417965153838
1 45590U 20025BM  23028.38148453 -.00003163  00000-0 -19343-3 0  9991
2 45590  53.0550 167.7032 0001804  73.2645 286.8542 15.06417965153221
1 45590U 20025BM  23028.64688914  .00017611  00000-0  12004-2 0  9998
2 45590  53.0550 166.5129 0001831  75.2633 284.8558 15.06333105153873
1 45590U 20025BM  23028.64688914  .00017611  00000-0  12004-2 0  9998
2 45590  53.0550 166.5129 0001831  75.2633 284.8558 15.06333105153266
1 45590U 20025BM  23029.11130084  .00003888  00000-0  27980-3 0  9992
2 45590  53.0552 164.4282 0001537  65.8223 294.2927 15.06398633153338
1 45590U 20025BM  23029.57572793  .00003178  00000-0  23209-3 0  9991
2 45590  53.0553 162.3431 0001495  70.3473 289.7677 15.06404098154013
1 45590U 20025BM  23030.37188773 -.00000322  00000-0 -27412-5 0  9994
2 45590  53.0551 158.7696 0001554  70.6346 289.4811 15.06410031153527
1 45590U 20025BM  23030.50458360 -.00000411  00000-0 -86761-5 0  9992
2 45590  53.0550 158.1731 0001447  75.3892 284.7257 15.06404907154156
1 45590U 20025BM  23030.70362049 -.00000350  00000-0 -45933-5 0  9990
2 45590  53.0540 157.2776 0001461  81.3552 278.7602 15.06407585154185
1 45590U 20025BM  23031.03535682 -.00000519  00000-0 -15974-4 0  9990
2 45590  53.0543 155.7874 0001476  91.8206 268.2952 15.06401619153620
1 45590U 20025BM  23031.49978356 -.00000973  00000-0 -46423-4 0  9996
2 45590  53.0545 153.7023 0001544  97.6363 262.4802 15.06402354154303
1 45590U 20025BM  23031.76516910 -.00000874  00000-0 -39796-4 0  9995
2 45590  53.0554 152.5118 0001506  85.7510 274.3651 15.06403562154345
